{
    "links": {
        "self": "http://www.neowsapp.com/rest/v1/neo/3799265?api_key=iIulBulltgU6a56xZRHN4H3l9WmuAYTsLGpBGhQ2"
    },
    "id": "3799265",
    "neo_reference_id": "3799265",
    "name": "(2018 CT1)",
    "designation": "2018 CT1",
    "nasa_jpl_url": "http://ssd.jpl.nasa.gov/sbdb.cgi?sstr=3799265",
    "absolute_magnitude_h": 21.9,
    "estimated_diameter": {
        "kilometers": {
            "estimated_diameter_min": 0.1108038821,
            "estimated_diameter_max": 0.2477650126
        },
        "meters": {
            "estimated_diameter_min": 110.8038821264,
            "estimated_diameter_max": 247.7650126055
        },
        "miles": {
            "estimated_diameter_min": 0.068850319,
            "estimated_diameter_max": 0.1539539936
        },
        "feet": {
            "estimated_diameter_min": 363.5298086356,
            "estimated_diameter_max": 812.8773639568
        }
    },
    "is_potentially_hazardous_asteroid": false,
    "close_approach_data": [
        {
            "close_approach_date": "2007-02-19",
            "close_approach_date_full": "2007-Feb-19 02:49",
            "epoch_date_close_approach": 1171853340000,
            "relative_velocity": {
                "kilometers_per_second": "18.7595650149",
                "kilometers_per_hour": "67534.4340538013",
                "miles_per_hour": "41963.27098193"
            },
            "miss_distance": {
                "astronomical": "0.1779975019",
                "lunar": "69.2410282391",
                "kilometers": "26628047.149560953",
                "miles": "16545901.2551010314"
            },
            "orbiting_body": "Earth"
        },
        {
            "close_approach_date": "2013-09-05",
            "close_approach_date_full": "2013-Sep-05 09:57",
            "epoch_date_close_approach": 1378375020000,
            "relative_velocity": {
                "kilometers_per_second": "19.226166169",
                "kilometers_per_hour": "69214.1982082355",
                "miles_per_hour": "43007.0111033339"
            },
            "miss_distance": {
                "astronomical": "0.2882536581",
                "lunar": "112.1306730009",
                "kilometers": "43122133.271468247",
                "miles": "26794851.1211339286"
            },
            "orbiting_body": "Earth"
        },
        {
            "close_approach_date": "2018-02-15",
            "close_approach_date_full": "2018-Feb-15 02:45",
            "epoch_date_close_approach": 1518662700000,
            "relative_velocity": {
                "kilometers_per_second": "22.0035540475",
                "kilometers_per_hour": "79212.7945711793",
                "miles_per_hour": "49219.7500489641"
            },
            "miss_distance": {
                "astronomical": "0.1263639746",
                "lunar": "49.1555861194",
                "kilometers": "18903781.444894102",
                "miles": "11746265.1083065276"
            },
            "orbiting_body": "Earth"
        },
        {
            "close_approach_date": "2029-02-10",
            "close_approach_date_full": "2029-Feb-10 05:00",
            "epoch_date_close_approach": 1865394000000,
            "relative_velocity": {
                "kilometers_per_second": "25.6266106744",
                "kilometers_per_hour": "92255.7984277655",
                "miles_per_hour": "57324.1654175191"
            },
            "miss_distance": {
                "astronomical": "0.1760133554",
                "lunar": "68.4691952506",
                "kilometers": "26331223.059392998",
                "miles": "16361463.3179714524"
            },
            "orbiting_body": "Earth"
        },
        {
            "close_approach_date": "2030-09-26",
            "close_approach_date_full": "2030-Sep-26 12:36",
            "epoch_date_close_approach": 1916656560000,
            "relative_velocity": {
                "kilometers_per_second": "24.6973979055",
                "kilometers_per_hour": "88910.632459854",
                "miles_per_hour": "55245.6093748465"
            },
            "miss_distance": {
                "astronomical": "0.1470389836",
                "lunar": "57.1981646204",
                "kilometers": "21996718.753524932",
                "miles": "13668127.2339587816"
            },
            "orbiting_body": "Venus"
        }
    ],
    "orbital_data": {
        "orbit_id": "1",
        "orbit_determination_date": "2018-02-10 11:12:06",
        "first_observation_date": "2018-01-15",
        "last_observation_date": "2018-02-10",
        "data_arc_in_days": 26,
        "observations_used": 49,
        "orbit_uncertainty": "7",
        "minimum_orbit_intersection": ".126371",
        "jupiter_tisserand_invariant": "4.603",
        "epoch_osculation": "2459000.5",
        "eccentricity": ".6317460255671411",
        "semi_major_axis": "1.349861361533351",
        "inclination": "18.67480156377937",
        "ascending_node_longitude": "125.1317428618206",
        "orbital_period": "572.8384702068433",
        "perihelion_distance": ".4970918113180069",
        "perihelion_argument": "131.2580711776606",
        "aphelion_distance": "2.202630911748696",
        "perihelion_time": "2458792.180685430056",
        "mean_anomaly": "130.9181508324683",
        "mean_motion": ".6284494123971971",
        "equinox": "J2000",
        "orbit_class": {
            "orbit_class_type": "APO",
            "orbit_class_description": "Near-Earth asteroid orbits which cross the Earth’s orbit similar to that of 1862 Apollo",
            "orbit_class_range": "a (semi-major axis) > 1.0 AU; q (perihelion) < 1.017 AU"
        }
    },
    "is_sentry_object": false
}